[{"OBJECT_NAME":"ION SCV-004","OBJECT_ID":"2022-002K","EPOCH":"2026-03-09T16:32:03.244416","MEAN_MOTION":15.29369331,"ECCENTRICITY":0.00072157,"INCLINATION":97.2961,"RA_OF_ASC_NODE":128.2294,"ARG_OF_PERICENTER":1.6783,"MEAN_ANOMALY":358.448,"EPHEMERIS_TYPE":0,"CLASSIFICATION_TYPE":"U","NORAD_CAT_ID":50993,"ELEMENT_SET_NO":999,"REV_AT_EPOCH":23008,"BSTAR":0.00023198467,"MEAN_MOTION_DOT":6.538e-5,"MEAN_MOTION_DDOT":0},{"OBJECT_NAME":"STARLINK-30521","OBJECT_ID":"2023-151C","EPOCH":"2026-03-09T03:09:39.578112","MEAN_MOTION":15.27587305,"ECCENTRICITY":0.00020162,"INCLINATION":43.0018,"RA_OF_ASC_NODE":338.9336,"ARG_OF_PERICENTER":248.1219,"MEAN_ANOMALY":111.9418,"EPHEMERIS_TYPE":0,"CLASSIFICATION_TYPE":"U","NORAD_CAT_ID":57966,"ELEMENT_SET_NO":999,"REV_AT_EPOCH":13568,"BSTAR":-0.00016835112,"MEAN_MOTION_DOT":-4.893e-5,"MEAN_MOTION_DDOT":0}]
